ZHUQUE-2E R/B           
1 69095U 26105A   26162.92139780  .00142035 -64241-6  34695-3 0  9998
2 69095  88.9709 194.9851 0452682 318.5519  38.2185 15.15987928  4352
2026-106A               
1 69097U 26106A   26162.91553301  .00006365  00000+0  38257-3 0  9997
2 69097  97.5095 245.0946 0014491 179.0864 181.0395 15.11128268  4187
2026-106B               
1 69098U 26106B   26162.92802834  .00003398  00000+0  21465-3 0  9993
2 69098  97.5077 245.0723 0014940 174.5313 185.6082 15.09634468  4183
2026-106C               
1 69099U 26106C   26162.91479743  .00006462  00000+0  38794-3 0  9990
2 69099  97.5098 245.0969 0014260 179.9000 180.2236 15.11170499  4180
2026-106D               
1 69100U 26106D   26162.91253331  .00001321  00000+0  82202-4 0  9999
2 69100  97.5075 245.0916 0013947 181.8517 178.2664 15.11259306  4183
2026-106E               
1 69101U 26106E   26162.51030586  .00005896  00000+0  35164-3 0  9996
2 69101  97.5075 244.7089 0016453 184.8563 175.2511 15.11419052  4128
DRAGON CRS-34           
1 69103U 26107A   26162.83551937  .00007284  00000+0  13937-3 0  9999
2 69103  51.6334 326.5798 0004934 175.2433 184.8603 15.49179015570765
QIANFAN-145             
1 69104U 26108A   26162.55250760 -.02103356  00000+0 -13214+1 0  9996
2 69104  89.0117  22.8485 0013091 110.6414 249.6175 14.08668699  3541
QIANFAN-146             
1 69105U 26108B   26162.67792769 -.02038654  00000+0 -11573+1 0  9994
2 69105  89.0105  22.8125 0016906 134.7181 225.5386 14.14053480  3579
QIANFAN-147             
1 69106U 26108C   26162.74818534  .00000101  00000+0  45848-4 0  9990
2 69106  89.0114  22.8222 0015450 125.0048 235.2591 14.13766227  3571
QIANFAN-148             
1 69107U 26108D   26162.59915893 -.01991222  00000+0 -12422+1 0  9994
2 69107  89.0103  22.8365 0015164 116.3438 243.9305 14.08809579  3555
QIANFAN-149             
1 69108U 26108E   26162.73827381 -.02088220  00000+0 -13008+1 0  9992
2 69108  89.0111  22.8212 0018708 113.8729 246.4417 14.09059581  3573
QIANFAN-150             
1 69109U 26108F   26162.65540435 -.02067212  00000+0 -12447+1 0  9990
2 69109  89.0111  22.8282 0014169 114.2996 245.9670 14.10921366  3564
QIANFAN-151             
1 69110U 26108G   26162.50836788 -.02044087  00000+0 -12517+1 0  9998
2 69110  89.0110  22.8421 0015248 110.9784 249.3033 14.09939876  3549
QIANFAN-152             
1 69111U 26108H   26162.71264870 -.02050118  00000+0 -12230+1 0  9993
2 69111  89.0107  22.8178 0018014 113.8562 246.4514 14.11363982  3572
QIANFAN-153             
1 69112U 26108J   26162.63673798 -.02079243  00000+0 -12427+1 0  9996
2 69112  89.0114  22.8254 0013203 121.0359 239.2124 14.11357907  3562
QIANFAN-154             
1 69113U 26108K   26162.41671075 -.02066713  00000+0 -12182+1 0  9995
2 69113  89.0114  22.8466 0016799 116.5076 243.7835 14.12061381  3531
QIANFAN-155             
1 69114U 26108L   26162.63353434 -.02062378  00000+0 -12433+1 0  9998
2 69114  89.0109  22.8243 0014570 110.6881 249.5868 14.10843253  3560
QIANFAN-156             
1 69115U 26108M   26162.47983655 -.02098012  00000+0 -12093+1 0  9991
2 69115  89.0111  22.8391 0016598 133.2892 226.9682 14.13346721  3545
QIANFAN-157             
1 69116U 26108N   26162.59175054 -.02100431  00000+0 -11839+1 0  9997
2 69116  89.0106  22.8183 0018894 147.2691 212.9671 14.14545118  3569
QIANFAN-158             
1 69117U 26108P   26162.68211349 -.02036045  00000+0 -11822+1 0  9997
2 69117  89.0106  22.8138 0015588 125.9559 234.3075 14.12830920  3576
QIANFAN-159             
1 69118U 26108Q   26162.67623445 -.02048356  00000+0 -11643+1 0  9990
2 69118  89.0099  22.8122 0016715 135.8916 224.3607 14.14001851  3576
QIANFAN-160             
1 69119U 26108R   26162.81325855 -.02028437  00000+0 -11570+1 0  9998
2 69119  89.0111  22.7957 0015665 132.6907 227.5602 14.13781672  3592
QIANFAN-161             
1 69120U 26108S   26162.66682814 -.02098965  00000+0 -11484+1 0  9991
2 69120  89.0110  22.8114 0020379 148.3590 211.8828 14.16138175  3570
QIANFAN-162             
1 69121U 26108T   26162.59287572 -.02107387  00000+0 -11654+1 0  9994
2 69121  89.0109  22.8185 0019290 151.5204 208.7042 14.15588099  3560
SMILE                   
1 69123U 26109A   26144.65318427 -.00001976  00000+0 -42379-3 0  9994
2 69123  70.0007 229.2745 0009123 259.5159 100.4951 14.57062785   802
STARLINK-37726          
1 69124U 26110A   26162.87204019  .00036180  00000+0  66352-3 0  9992
2 69124  97.2846 359.0420 0001473  87.8419 272.3001 15.49202697  4773
STARLINK-37722          
1 69125U 26110B   26162.91668981  .00118948  00000+0  21600-2 0  9999
2 69125  97.2840 359.2477 0001689  68.6126 199.3948 15.49133903  4853
